NORAD_CAT_ID,OBJECT_NAME,OBJECT_TYPE,EPOCH,MEAN_MOTION,ECCENTRICITY,INCLINATION,RA_OF_ASC_NODE,ARG_OF_PERICENTER,MEAN_ANOMALY,BSTAR,MEAN_MOTION_DOT,MEAN_MOTION_DDOT,TLE_LINE0,TLE_LINE1,TLE_LINE2,SEMIMAJOR_AXIS,PERIOD,APOGEE,PERIGEE,DECAYED
53982.0,STARLINK-5120,PAYLOAD,2023-05-13 11:23:59,15.08848396,0.0001203,53.2149,163.4553,79.6152,280.4975,0.00019738,2.856e-05,0.0,0 STARLINK-5120,1 53982U 22125U   23133.47499132  .00002856  00000-0  19738-3 0  9992,2 53982  53.2149 163.4553 0001203  79.6152 280.4975 15.08848396 33773,6917.855,95.437,540.552,538.888,0.0
53982.0,STARLINK-5120,PAYLOAD,2023-05-13 19:20:55,15.08839831,0.0001227,53.2146,161.968,79.4876,280.6254,7.8895e-05,9.68e-06,0.0,0 STARLINK-5120,1 53982U 22125U   23133.80619570  .00000968  00000-0  78895-4 0  9991,2 53982  53.2146 161.9680 0001227  79.4876 280.6254 15.08839831 33902,6917.881,95.438,540.595,538.897,0.0
53982.0,STARLINK-5120,PAYLOAD,2023-05-14 11:14:47,15.08835431,0.0001352,53.2147,158.9961,76.3056,283.8087,3.9587e-05,3.42e-06,0.0,0 STARLINK-5120,1 53982U 22125U   23134.46860087  .00000342  00000-0  39587-4 0  9996,2 53982  53.2147 158.9961 0001352  76.3056 283.8087 15.08835431 34009,6917.894,95.438,540.695,538.824,0.0
53982.0,STARLINK-5120,PAYLOAD,2023-05-15 01:33:14,15.08843518,0.0001231,53.2157,156.3179,84.953,275.1602,5.8104e-05,6.37e-06,0.0,0 STARLINK-5120,1 53982U 22125U   23135.06475621  .00000637  00000-0  58104-4 0  9992,2 53982  53.2157 156.3179 0001231  84.9530 275.1602 15.08843518 34092,6917.87,95.437,540.586,538.883,0.0
53982.0,STARLINK-5120,PAYLOAD,2023-05-15 11:05:33,15.08845679,0.0001333,53.2159,154.5331,87.7613,272.3532,6.9363e-05,8.16e-06,0.0,0 STARLINK-5120,1 53982U 22125U   23135.46219320  .00000816  00000-0  69363-4 0  9996,2 53982  53.2159 154.5331 0001333  87.7613 272.3532 15.08845679 34079,6917.863,95.437,540.65,538.806,0.0
53982.0,STARLINK-5120,PAYLOAD,2023-05-16 04:34:48,15.08834205,0.0001294,53.2154,151.2613,87.9743,272.1397,8.5469e-05,1.072e-05,0.0,0 STARLINK-5120,1 53982U 22125U   23136.19084097  .00001072  00000-0  85469-4 0  9998,2 53982  53.2154 151.2613 0001294  87.9743 272.1397 15.08834205 34264,6917.898,95.438,540.658,538.868,0.0
53982.0,STARLINK-5120,PAYLOAD,2023-05-16 07:45:34,15.0883572,0.000127,53.2152,150.6662,86.9391,273.1746,8.178e-05,1.014e-05,0.0,0 STARLINK-5120,1 53982U 22125U   23136.32332051  .00001014  00000-0  81780-4 0  9997,2 53982  53.2152 150.6662 0001270  86.9391 273.1746 15.08835720 34207,6917.893,95.438,540.637,538.88,0.0
53982.0,STARLINK-5120,PAYLOAD,2023-05-17 07:36:21,15.08839573,0.0001297,53.2154,146.2052,87.3798,272.7342,1.561e-05,-3.9e-07,0.0,0 STARLINK-5120,1 53982U 22125U   23137.31692007 -.00000039  00000-0  15610-4 0  9993,2 53982  53.2154 146.2052 0001297  87.3798 272.7342 15.08839573 34430,6917.882,95.438,540.644,538.849,0.0
53982.0,STARLINK-5120,PAYLOAD,2023-05-17 17:08:40,15.08838873,0.00013,53.2154,144.4208,86.0568,274.0572,2.5274e-05,1.14e-06,0.0,0 STARLINK-5120,1 53982U 22125U   23137.71436033  .00000114  00000-0  25274-4 0  9992,2 53982  53.2154 144.4208 0001300  86.0568 274.0572 15.08838873 34419,6917.884,95.438,540.648,538.85,0.0
53982.0,STARLINK-5120,PAYLOAD,2023-05-18 10:37:55,15.08837342,0.0001263,53.2158,141.1519,88.4215,271.6922,5.9638e-05,6.61e-06,0.0,0 STARLINK-5120,1 53982U 22125U   23138.44300140  .00000661  00000-0  59638-4 0  9990,2 53982  53.2158 141.1519 0001263  88.4215 271.6922 15.08837342 34608,6917.889,95.438,540.627,538.88,0.0
53982.0,STARLINK-5120,PAYLOAD,2023-05-18 16:59:28,15.08835536,0.000126,53.2158,139.9623,88.9353,271.1783,4.2286e-05,3.85e-06,0.0,0 STARLINK-5120,1 53982U 22125U   23138.70796364  .00000385  00000-0  42286-4 0  9990,2 53982  53.2158 139.9623 0001260  88.9353 271.1783 15.08835536 34562,6917.894,95.438,540.631,538.887,0.0
53982.0,STARLINK-5120,PAYLOAD,2023-05-19 16:50:15,15.08838172,0.0001264,53.2163,135.5017,88.2441,271.8696,4.4807e-05,4.25e-06,0.0,0 STARLINK-5120,1 53982U 22125U   23139.70156375  .00000425  00000-0  44807-4 0  9999,2 53982  53.2163 135.5017 0001264  88.2441 271.8696 15.08838172 34796,6917.886,95.438,540.625,538.877,0.0
53982.0,STARLINK-5120,PAYLOAD,2023-05-20 16:41:02,15.08840833,0.0001294,53.2169,131.0408,86.4268,273.6872,6.6809e-05,7.76e-06,0.0,0 STARLINK-5120,1 53982U 22125U   23140.69516247  .00000776  00000-0  66809-4 0  9992,2 53982  53.2169 131.0408 0001294  86.4268 273.6872 15.08840833 34868,6917.878,95.438,540.638,538.848,0.0
53982.0,STARLINK-5120,PAYLOAD,2023-05-21 08:34:53,15.08844842,0.0001272,53.2167,128.0669,86.8648,273.249,8.2328e-05,1.023e-05,0.0,0 STARLINK-5120,1 53982U 22125U   23141.35755896  .00001023  00000-0  82328-4 0  9991,2 53982  53.2167 128.0669 0001272  86.8648 273.2490 15.08844842 35040,6917.866,95.437,540.611,538.851,0.0
53982.0,STARLINK-5120,PAYLOAD,2023-05-21 22:53:21,15.08837459,0.0001338,53.2168,125.3912,86.4302,273.6843,1.1646e-05,-1.03e-06,0.0,0 STARLINK-5120,1 53982U 22125U   23141.95372577 -.00000103  00000-0  11646-4 0  9992,2 53982  53.2168 125.3912 0001338  86.4302 273.6843 15.08837459 35051,6917.888,95.438,540.679,538.828,0.0
53982.0,STARLINK-5120,PAYLOAD,2023-05-22 05:14:54,15.0884114,0.0001341,53.2165,124.202,86.2997,273.8149,4.2203e-05,3.84e-06,0.0,0 STARLINK-5120,1 53982U 22125U   23142.21868283  .00000384  00000-0  42203-4 0  9999,2 53982  53.2165 124.2020 0001341  86.2997 273.8149 15.08841140 35095,6917.877,95.437,540.67,538.814,0.0
53982.0,STARLINK-5120,PAYLOAD,2023-05-22 16:22:36,15.08838324,0.0001357,53.217,122.1187,95.6344,264.4803,2.2197e-05,6.5e-07,0.0,0 STARLINK-5120,1 53982U 22125U   23142.68236482  .00000065  00000-0  22197-4 0  9996,2 53982  53.2170 122.1187 0001357  95.6344 264.4803 15.08838324 35160,6917.886,95.438,540.689,538.812,0.0
53982.0,STARLINK-5120,PAYLOAD,2023-05-23 01:54:55,15.08813534,0.0001257,53.2164,120.3348,100.4614,259.652,0.00043007,6.558e-05,0.0,0 STARLINK-5120,1 53982U 22125U   23143.07981018  .00006558  00000-0  43007-3 0  9997,2 53982  53.2164 120.3348 0001257 100.4614 259.6520 15.08813534 35300,6917.961,95.439,540.696,538.957,0.0
53982.0,STARLINK-5120,PAYLOAD,2023-05-23 05:05:41,15.08842193,0.0001355,53.2168,119.74,95.0809,265.0338,4.2628e-05,3.91e-06,0.0,0 STARLINK-5120,1 53982U 22125U   23143.21228144  .00000391  00000-0  42628-4 0  9995,2 53982  53.2168 119.7400 0001355  95.0809 265.0338 15.08842193 35322,6917.874,95.437,540.676,538.801,0.0
53982.0,STARLINK-5120,PAYLOAD,2023-05-24 08:07:14,15.08838649,0.0001225,53.2171,114.6853,91.8048,268.3084,3.9245e-05,3.37e-06,0.0,0 STARLINK-5120,1 53982U 22125U   23144.33836489  .00000337  00000-0  39245-4 0  9997,2 53982  53.2171 114.6853 0001225  91.8048 268.3084 15.08838649 35490,6917.885,95.438,540.597,538.902,0.0
53982.0,STARLINK-5120,PAYLOAD,2023-05-25 22:16:30,15.08782111,0.0001458,53.2167,107.5497,92.4995,267.6164,0.00070498,0.00010932,0.0,0 STARLINK-5120,1 53982U 22125U   23145.92813333  .00010932  00000-0  70498-3 0  9992,2 53982  53.2167 107.5497 0001458  92.4995 267.6164 15.08782111 35657,6918.057,95.441,540.931,538.914,0.0
53982.0,STARLINK-5120,PAYLOAD,2023-05-26 03:02:39,15.08827718,0.0001202,53.2167,106.6574,98.3126,261.8002,0.00020149,2.919e-05,0.0,0 STARLINK-5120,1 53982U 22125U   23146.12685014  .00002919  00000-0  20149-3 0  9992,2 53982  53.2167 106.6574 0001202  98.3126 261.8002 15.08827718 35763,6917.918,95.438,540.614,538.951,0.0
53982.0,STARLINK-5120,PAYLOAD,2023-05-26 20:31:54,15.08833685,0.0001215,53.2171,103.3883,96.1638,263.9492,7.0668e-05,8.37e-06,0.0,0 STARLINK-5120,1 53982U 22125U   23146.85549335  .00000837  00000-0  70668-4 0  9996,2 53982  53.2171 103.3883 0001215  96.1638 263.9492 15.08833685 35792,6917.9,95.438,540.605,538.924,0.0
53982.0,STARLINK-5120,PAYLOAD,2023-05-27 04:28:50,15.08833362,0.0001183,53.2171,101.9002,90.1689,269.9439,2.0627e-05,4e-07,0.0,0 STARLINK-5120,1 53982U 22125U   23147.18669698  .00000040  00000-0  20627-4 0  9994,2 53982  53.2171 101.9002 0001183  90.1689 269.9439 15.08833362 35927,6917.901,95.438,540.584,538.947,0.0
53982.0,STARLINK-5120,PAYLOAD,2023-05-27 20:22:41,15.08839503,0.0001176,53.2172,98.9255,90.0869,270.0258,2.8092e-05,1.59e-06,0.0,0 STARLINK-5120,1 53982U 22125U   23147.84909451  .00000159  00000-0  28092-4 0  9996,2 53982  53.2172  98.9255 0001176  90.0869 270.0258 15.08839503 35941,6917.882,95.438,540.56,538.933,0.0
53982.0,STARLINK-5120,PAYLOAD,2023-05-28 02:44:13,15.08844732,0.0001201,53.2174,97.7372,88.6137,271.4993,6.4037e-05,7.32e-06,0.0,0 STARLINK-5120,1 53982U 22125U   23148.11404961  .00000732  00000-0  64037-4 0  9999,2 53982  53.2174  97.7372 0001201  88.6137 271.4993 15.08844732 36065,6917.866,95.437,540.562,538.9,0.0
53982.0,STARLINK-5120,PAYLOAD,2023-05-28 04:19:36,15.08846702,0.0001265,53.2178,97.4399,88.2875,271.8262,8.0322e-05,9.91e-06,0.0,0 STARLINK-5120,1 53982U 22125U   23148.18028809  .00000991  00000-0  80322-4 0  9991,2 53982  53.2178  97.4399 0001265  88.2875 271.8262 15.08846702 35993,6917.86,95.437,540.6,538.85,0.0
53982.0,STARLINK-5120,PAYLOAD,2023-05-28 20:13:28,15.08840234,0.0001302,53.2181,94.467,87.3659,272.7482,9.5587e-05,1.234e-05,0.0,0 STARLINK-5120,1 53982U 22125U   23148.84269063  .00001234  00000-0  95587-4 0  9993,2 53982  53.2181  94.4670 0001302  87.3659 272.7482 15.08840234 36098,6917.88,95.438,540.645,538.844,0.0
53982.0,STARLINK-5120,PAYLOAD,2023-05-29 05:45:46,15.08844715,0.0001167,53.2176,92.6824,89.6942,270.4184,0.00011703,1.575e-05,0.0,0 STARLINK-5120,1 53982U 22125U   23149.24012641  .00001575  00000-0  11703-3 0  9991,2 53982  53.2176  92.6824 0001167  89.6942 270.4184 15.08844715 36230,6917.866,95.437,540.538,538.924,0.0
53982.0,STARLINK-5120,PAYLOAD,2023-05-30 02:25:48,15.08835266,0.0001223,53.2177,88.8171,84.84,275.2732,-4.5869e-05,-1.018e-05,0.0,0 STARLINK-5120,1 53982U 22125U   23150.10125941 -.00001018  00000-0 -45869-4 0  9991,2 53982  53.2177  88.8171 0001223  84.8400 275.2732 15.08835266 36369,6917.895,95.438,540.606,538.914,0.0
